COSMOS 2507 (RODNIK-S *)
1 40920U 15050A   26141.58856822  .00000082  00000+0  51653-3 0  9996
2 40920  82.4909  96.2297 0011074  50.9238 309.2825 12.42926000483554
COSMOS 2508 (RODNIK-S *)
1 40921U 15050B   26141.62381436  .00000067  00000+0  41241-3 0  9991
2 40921  82.4863  94.7229 0015539  80.7644 279.5192 12.42913126483544
COSMOS 2509 (RODNIK-S *)
1 40922U 15050C   26141.56299567 -.00000032  00000+0 -29988-3 0  9996
2 40922  82.4871  94.8603 0015770  96.9130 263.3744 12.42882416483571
LINGQIAO VIDEO A        
1 40959U 15057B   26141.60860837  .00000355  00000+0  56637-4 0  9990
2 40959  97.6620 137.7241 0016928   1.5724 358.5538 14.77349322571483
LINGQIAO VIDEO B        
1 40960U 15057C   26141.65491535  .00000169  00000+0  30424-4 0  9991
2 40960  97.6586 138.9387 0017091   1.4726 358.6532 14.77454700571531
JILIN-1                 
1 40961U 15057D   26141.54484447  .00000497  00000+0  75271-4 0  9997
2 40961  97.6509 142.2361 0016792 355.9143   4.1929 14.78109103571677
FOX-1A (AO-85)          
1 40967U 15058D   26141.05170779  .00002136  00000+0  20016-3 0  9998
2 40967  64.7762   3.3023 0129286  67.2463 294.2251 14.90792762109526
SINOD-D 1               
1 40968U 15058E   26141.53567660  .00003006  00000+0  24855-3 0  9993
2 40968  64.7762 342.3613 0117818  63.7848 297.5322 14.95676717112675
ELEKTRO-L 2             
1 41105U 15074A   26141.16049927 -.00000124  00000+0  00000+0 0  9996
2 41105   6.6281  70.8457 0001491 257.4077 313.8294  1.00271563 38235
DAMPE                   
1 41173U 15078A   26141.62832104  .00000641  00000+0  24187-4 0  9993
2 41173  97.4562 146.9669 0012236 161.9502 198.2176 15.30708366580488
ORBCOMM FM114           
1 41179U 15081A   26141.33681745  .00000123  00000+0  62203-4 0  9990
2 41179  47.0032 128.9456 0001371  56.3016 303.8000 14.58822514553836
ORBCOMM FM110           
1 41182U 15081D   26141.25700542  .00000467  00000+0  13509-3 0  9997
2 41182  47.0004 128.7711 0003925 304.1377  55.9136 14.58831789553695
ORBCOMM FM112           
1 41184U 15081F   26141.09085632  .00000413  00000+0  12360-3 0  9992
2 41184  47.0006  38.3722 0002454  75.9608 284.1551 14.58857572554992
ORBCOMM FM113           
1 41185U 15081G   26141.40917140  .00000208  00000+0  80333-4 0  9994
2 41185  47.0020  37.2311 0001013  71.1537 288.9459 14.58824122555029
ORBCOMM FM108           
1 41187U 15081J   26141.44023228  .00000356  00000+0  11171-3 0  9992
2 41187  47.0055 308.6522 0001908  79.5145 280.5956 14.58827638556170
ORBCOMM FM117           
1 41188U 15081K   26140.85778200  .00000309  00000+0  10176-3 0  9996
2 41188  47.0019 310.0480 0002407  83.6133 276.5027 14.58824501556135
ORBCOMM FM116           
1 41189U 15081L   26141.04390445  .00000359  00000+0  11213-3 0  9998
2 41189  47.0034  38.9561 0002148 301.2102  58.8573 14.58834931554971
HORYU-4                 
1 41340U 16012D   26141.39941902  .00152227  00000+0  75460-3 0  9996
2 41340  30.9883 273.2630 0004036  95.4050 264.7068 15.80437185566556
ZIYUAN 3-02 (ZY 3-02)   
1 41556U 16033A   26141.61714910  .00003788  00000+0  17266-3 0  9997
2 41556  97.3833 217.9008 0013414  29.0259 331.1720 15.21181980553942
CARTOSAT-2C             
1 41599U 16040A   26141.64926431  .00004273  00000+0  20579-3 0  9999
2 41599  97.4487 201.9890 0008867 219.8624 140.1960 15.19249835549689
LAPAN-A3                
1 41603U 16040E   26141.62487574  .00002263  00000+0  73374-4 0  9992
2 41603  97.1490 138.6487 0012204 107.8451 252.4124 15.32916438550741
GAOFEN-3                
1 41727U 16049A   26141.65091310 -.00000057  00000+0 -41012-5 0  9996
2 41727  98.4017 149.8378 0000940  87.5244 272.6053 14.42211019514825
CAS-2T & KS-1Q          
1 41847U 16066G   26141.43546904  .00000744  00000+0  11393-3 0  9996
2 41847  98.3826 217.4753 0341492 210.5596 147.5304 14.44602754500930
YUNHAI-1 01             
1 41857U 16068A   26141.62778631  .00000375  00000+0  15394-3 0  9999
2 41857  98.5838 152.8822 0006558 107.5181 252.6720 14.32719453498029
RESOURCESAT-2A          
1 41877U 16074A   26141.60703065  .00000569  00000+0  27950-3 0  9991
2 41877  98.7525 215.3275 0002891 134.4446 225.6968 14.21608713490527
