OBJECT_NAME,OBJECT_ID,EPOCH,MEAN_MOTION,ECCENTRICITY,INCLINATION,RA_OF_ASC_NODE,ARG_OF_PERICENTER,MEAN_ANOMALY,EPHEMERIS_TYPE,CLASSIFICATION_TYPE,NORAD_CAT_ID,ELEMENT_SET_NO,REV_AT_EPOCH,BSTAR,MEAN_MOTION_DOT,MEAN_MOTION_DDOT
COSMOS 2507 (RODNIK-S 13),2015-050A,2026-05-21T14:07:32.294208,12.42926000,.00110748,82.4909,96.2297,50.9238,309.2825,0,U,40920,999,48355,.51653323E-3,.82E-6,0
COSMOS 2508 (RODNIK-S 14),2015-050B,2026-05-21T14:58:17.560704,12.42913126,.0015539,82.4863,94.7229,80.7644,279.5192,0,U,40921,999,48354,.41241243E-3,.67E-6,0
COSMOS 2509 (RODNIK-S 15),2015-050C,2026-05-21T13:30:42.825888,12.42882416,.00157706,82.4871,94.8603,96.9130,263.3744,0,U,40922,999,48357,-.29987895E-3,-.32E-6,0
LINGQIAO VIDEO A,2015-057B,2026-05-21T14:36:23.763168,14.77349322,.00169283,97.6620,137.7241,1.5724,358.5538,0,U,40959,999,57148,.56636701E-4,.355E-5,0
LINGQIAO VIDEO B,2015-057C,2026-05-21T15:43:04.686240,14.77454700,.00170912,97.6586,138.9387,1.4726,358.6532,0,U,40960,999,57153,.30424087E-4,.169E-5,0
JILIN-1,2015-057D,2026-05-21T13:04:34.562208,14.78109103,.00167924,97.6509,142.2361,355.9143,4.1929,0,U,40961,999,57167,.75271087E-4,.497E-5,0
FOX-1A (AO-85),2015-058D,2026-05-21T01:14:27.553056,14.90792762,.01292861,64.7762,3.3023,67.2463,294.2251,0,U,40967,999,10952,.20016129E-3,.2136E-4,0
SINOD-D 1,2015-058E,2026-05-21T12:51:22.458240,14.95676717,.01178188,64.7762,342.3613,63.7848,297.5322,0,U,40968,999,11267,.24854689E-3,.3006E-4,0
ELEKTRO-L 2,2015-074A,2026-05-21T03:51:07.136928,1.00271563,.00014913,6.6281,70.8457,257.4077,313.8294,0,U,41105,999,3823,0,-.124E-5,0
DAMPE,2015-078A,2026-05-21T15:04:46.937856,15.30708366,.00122363,97.4562,146.9669,161.9502,198.2176,0,U,41173,999,58048,.24187072E-4,.641E-5,0
ORBCOMM FM114,2015-081A,2026-05-21T08:05:01.027680,14.58822514,.00013712,47.0032,128.9456,56.3016,303.8000,0,U,41179,999,55383,.62203242E-4,.123E-5,0
ORBCOMM FM110,2015-081D,2026-05-21T06:10:05.268288,14.58831789,.00039259,47.0004,128.7711,304.1377,55.9136,0,U,41182,999,55369,.13509015E-3,.467E-5,0
ORBCOMM FM112,2015-081F,2026-05-21T02:10:49.986048,14.58857572,.00024547,47.0006,38.3722,75.9608,284.1551,0,U,41184,999,55499,.12359951E-3,.413E-5,0
ORBCOMM FM113,2015-081G,2026-05-21T09:49:12.408960,14.58824122,.00010139,47.0020,37.2311,71.1537,288.9459,0,U,41185,999,55502,.80333062E-4,.208E-5,0
ORBCOMM FM108,2015-081J,2026-05-21T10:33:56.068992,14.58827638,.00019088,47.0055,308.6522,79.5145,280.5956,0,U,41187,999,55617,.11171488E-3,.356E-5,0
ORBCOMM FM117,2015-081K,2026-05-20T20:35:12.364800,14.58824501,.00024072,47.0019,310.0480,83.6133,276.5027,0,U,41188,999,55613,.10176344E-3,.309E-5,0
ORBCOMM FM116,2015-081L,2026-05-21T01:03:13.344480,14.58834931,.00021488,47.0034,38.9561,301.2102,58.8573,0,U,41189,999,55497,.11212978E-3,.359E-5,0
HORYU-4,2016-012D,2026-05-21T09:35:09.803328,15.80437185,.00040366,30.9883,273.2630,95.4050,264.7068,0,U,41340,999,56655,.75460487E-3,.152227E-2,0
ZIYUAN 3-02 (ZY 3-02),2016-033A,2026-05-21T14:48:41.682240,15.21181980,.00134147,97.3833,217.9008,29.0259,331.1720,0,U,41556,999,55394,.17266297E-3,.3788E-4,0
CARTOSAT-2C,2016-040A,2026-05-21T15:34:56.436384,15.19249835,.00088674,97.4487,201.9890,219.8624,140.1960,0,U,41599,999,54968,.20578951E-3,.4273E-4,0
LAPAN-A3,2016-040E,2026-05-21T14:59:49.263936,15.32916438,.00122041,97.1490,138.6487,107.8451,252.4124,0,U,41603,999,55074,.7337432E-4,.2263E-4,0
GAOFEN-3,2016-049A,2026-05-21T15:37:18.891840,14.42211019,.00009402,98.4017,149.8378,87.5244,272.6053,0,U,41727,999,51482,-.4101177E-5,-.57E-6,0
CAS-2T & KS-1Q,2016-066G,2026-05-21T10:27:04.525056,14.44602754,.03414925,98.3826,217.4753,210.5596,147.5304,0,U,41847,999,50093,.11393171E-3,.744E-5,0
YUNHAI-1 01,2016-068A,2026-05-21T15:04:00.737184,14.32719453,.00065588,98.5838,152.8822,107.5181,252.6720,0,U,41857,999,49802,.15394373E-3,.375E-5,0
RESOURCESAT-2A,2016-074A,2026-05-21T14:34:07.448160,14.21608713,.00028915,98.7525,215.3275,134.4446,225.6968,0,U,41877,999,49052,.27950248E-3,.569E-5,0
